<?xml version="1.0" encoding="UTF-8"?>
<ndm xmlns:xsi="http://www.w3.org/2001/XMLSchema-instance" xsi:noNamespaceSchemaLocation="https://sanaregistry.org/r/ndmxml_unqualified/ndmxml-2.0.0-master-2.0.xsd">
<omm id="CCSDS_OMM_VERS" version="2.0">
<header><CREATION_DATE/><ORIGINATOR/></header><body><segment><metadata><OBJECT_NAME>ONEWEB-0403</OBJECT_NAME><OBJECT_ID>2021-132Q</OBJECT_ID><CENTER_NAME>EARTH</CENTER_NAME><REF_FRAME>TEME</REF_FRAME><TIME_SYSTEM>UTC</TIME_SYSTEM><MEAN_ELEMENT_THEORY>SGP4</MEAN_ELEMENT_THEORY></metadata><data><meanElements><EPOCH>2024-05-15T11:34:14.959776</EPOCH><MEAN_MOTION>13.18684900</MEAN_MOTION><ECCENTRICITY>.0001787</ECCENTRICITY><INCLINATION>87.9116</INCLINATION><RA_OF_ASC_NODE>127.2897</RA_OF_ASC_NODE><ARG_OF_PERICENTER>86.8630</ARG_OF_PERICENTER><MEAN_ANOMALY>273.2707</MEAN_ANOMALY></meanElements><tleParameters><EPHEMERIS_TYPE>0</EPHEMERIS_TYPE><CLASSIFICATION_TYPE>U</CLASSIFICATION_TYPE><NORAD_CAT_ID>50483</NORAD_CAT_ID><ELEMENT_SET_NO>999</ELEMENT_SET_NO><REV_AT_EPOCH>12107</REV_AT_EPOCH><BSTAR>.14483E-3</BSTAR><MEAN_MOTION_DOT>.7E-6</MEAN_MOTION_DOT><MEAN_MOTION_DDOT>0</MEAN_MOTION_DDOT></tleParameters></data></segment></body></omm>
<omm id="CCSDS_OMM_VERS" version="2.0">
<header><CREATION_DATE/><ORIGINATOR/></header><body><segment><metadata><OBJECT_NAME>ONEWEB-0404</OBJECT_NAME><OBJECT_ID>2021-132R</OBJECT_ID><CENTER_NAME>EARTH</CENTER_NAME><REF_FRAME>TEME</REF_FRAME><TIME_SYSTEM>UTC</TIME_SYSTEM><MEAN_ELEMENT_THEORY>SGP4</MEAN_ELEMENT_THEORY></metadata><data><meanElements><EPOCH>2024-05-15T14:13:22.819008</EPOCH><MEAN_MOTION>13.11403304</MEAN_MOTION><ECCENTRICITY>.0001742</ECCENTRICITY><INCLINATION>87.8985</INCLINATION><RA_OF_ASC_NODE>172.7733</RA_OF_ASC_NODE><ARG_OF_PERICENTER>83.4141</ARG_OF_PERICENTER><MEAN_ANOMALY>276.7186</MEAN_ANOMALY></meanElements><tleParameters><EPHEMERIS_TYPE>0</EPHEMERIS_TYPE><CLASSIFICATION_TYPE>U</CLASSIFICATION_TYPE><NORAD_CAT_ID>50484</NORAD_CAT_ID><ELEMENT_SET_NO>999</ELEMENT_SET_NO><REV_AT_EPOCH>11574</REV_AT_EPOCH><BSTAR>-.16236E-2</BSTAR><MEAN_MOTION_DOT>-.563E-5</MEAN_MOTION_DOT><MEAN_MOTION_DDOT>0</MEAN_MOTION_DDOT></tleParameters></data></segment></body></omm>
<omm id="CCSDS_OMM_VERS" version="2.0">
<header><CREATION_DATE/><ORIGINATOR/></header><body><segment><metadata><OBJECT_NAME>ONEWEB-0405</OBJECT_NAME><OBJECT_ID>2021-132S</OBJECT_ID><CENTER_NAME>EARTH</CENTER_NAME><REF_FRAME>TEME</REF_FRAME><TIME_SYSTEM>UTC</TIME_SYSTEM><MEAN_ELEMENT_THEORY>SGP4</MEAN_ELEMENT_THEORY></metadata><data><meanElements><EPOCH>2024-05-15T11:57:00.611136</EPOCH><MEAN_MOTION>13.18685897</MEAN_MOTION><ECCENTRICITY>.0001666</ECCENTRICITY><INCLINATION>87.9117</INCLINATION><RA_OF_ASC_NODE>127.2761</RA_OF_ASC_NODE><ARG_OF_PERICENTER>99.1149</ARG_OF_PERICENTER><MEAN_ANOMALY>261.0172</MEAN_ANOMALY></meanElements><tleParameters><EPHEMERIS_TYPE>0</EPHEMERIS_TYPE><CLASSIFICATION_TYPE>U</CLASSIFICATION_TYPE><NORAD_CAT_ID>50485</NORAD_CAT_ID><ELEMENT_SET_NO>999</ELEMENT_SET_NO><REV_AT_EPOCH>12147</REV_AT_EPOCH><BSTAR>.15546E-3</BSTAR><MEAN_MOTION_DOT>.74E-6</MEAN_MOTION_DOT><MEAN_MOTION_DDOT>0</MEAN_MOTION_DDOT></tleParameters></data></segment></body></omm>
<omm id="CCSDS_OMM_VERS" version="2.0">
<header><CREATION_DATE/><ORIGINATOR/></header><body><segment><metadata><OBJECT_NAME>ONEWEB-0406</OBJECT_NAME><OBJECT_ID>2021-132T</OBJECT_ID><CENTER_NAME>EARTH</CENTER_NAME><REF_FRAME>TEME</REF_FRAME><TIME_SYSTEM>UTC</TIME_SYSTEM><MEAN_ELEMENT_THEORY>SGP4</MEAN_ELEMENT_THEORY></metadata><data><meanElements><EPOCH>2024-05-15T11:41:05.058240</EPOCH><MEAN_MOTION>13.18686513</MEAN_MOTION><ECCENTRICITY>.0002003</ECCENTRICITY><INCLINATION>87.9120</INCLINATION><RA_OF_ASC_NODE>127.2890</RA_OF_ASC_NODE><ARG_OF_PERICENTER>76.4957</ARG_OF_PERICENTER><MEAN_ANOMALY>283.6398</MEAN_ANOMALY></meanElements><tleParameters><EPHEMERIS_TYPE>0</EPHEMERIS_TYPE><CLASSIFICATION_TYPE>U</CLASSIFICATION_TYPE><NORAD_CAT_ID>50486</NORAD_CAT_ID><ELEMENT_SET_NO>999</ELEMENT_SET_NO><REV_AT_EPOCH>12110</REV_AT_EPOCH><BSTAR>.92239E-4</BSTAR><MEAN_MOTION_DOT>.49E-6</MEAN_MOTION_DOT><MEAN_MOTION_DDOT>0</MEAN_MOTION_DDOT></tleParameters></data></segment></body></omm>
<omm id="CCSDS_OMM_VERS" version="2.0">
<header><CREATION_DATE/><ORIGINATOR/></header><body><segment><metadata><OBJECT_NAME>ONEWEB-0407</OBJECT_NAME><OBJECT_ID>2021-132U</OBJECT_ID><CENTER_NAME>EARTH</CENTER_NAME><REF_FRAME>TEME</REF_FRAME><TIME_SYSTEM>UTC</TIME_SYSTEM><MEAN_ELEMENT_THEORY>SGP4</MEAN_ELEMENT_THEORY></metadata><data><meanElements><EPOCH>2024-05-15T11:31:58.652544</EPOCH><MEAN_MOTION>13.18685359</MEAN_MOTION><ECCENTRICITY>.0001845</ECCENTRICITY><INCLINATION>87.9115</INCLINATION><RA_OF_ASC_NODE>127.2937</RA_OF_ASC_NODE><ARG_OF_PERICENTER>90.4380</ARG_OF_PERICENTER><MEAN_ANOMALY>269.6963</MEAN_ANOMALY></meanElements><tleParameters><EPHEMERIS_TYPE>0</EPHEMERIS_TYPE><CLASSIFICATION_TYPE>U</CLASSIFICATION_TYPE><NORAD_CAT_ID>50487</NORAD_CAT_ID><ELEMENT_SET_NO>999</ELEMENT_SET_NO><REV_AT_EPOCH>12104</REV_AT_EPOCH><BSTAR>.1136E-3</BSTAR><MEAN_MOTION_DOT>.58E-6</MEAN_MOTION_DOT><MEAN_MOTION_DDOT>0</MEAN_MOTION_DDOT></tleParameters></data></segment></body></omm>
<omm id="CCSDS_OMM_VERS" version="2.0">
<header><CREATION_DATE/><ORIGINATOR/></header><body><segment><metadata><OBJECT_NAME>ONEWEB-0409</OBJECT_NAME><OBJECT_ID>2021-132V</OBJECT_ID><CENTER_NAME>EARTH</CENTER_NAME><REF_FRAME>TEME</REF_FRAME><TIME_SYSTEM>UTC</TIME_SYSTEM><MEAN_ELEMENT_THEORY>SGP4</MEAN_ELEMENT_THEORY></metadata><data><meanElements><EPOCH>2024-05-15T14:10:58.269216</EPOCH><MEAN_MOTION>13.11409936</MEAN_MOTION><ECCENTRICITY>.0002048</ECCENTRICITY><INCLINATION>87.8976</INCLINATION><RA_OF_ASC_NODE>172.7732</RA_OF_ASC_NODE><ARG_OF_PERICENTER>75.2252</ARG_OF_PERICENTER><MEAN_ANOMALY>284.9103</MEAN_ANOMALY></meanElements><tleParameters><EPHEMERIS_TYPE>0</EPHEMERIS_TYPE><CLASSIFICATION_TYPE>U</CLASSIFICATION_TYPE><NORAD_CAT_ID>50488</NORAD_CAT_ID><ELEMENT_SET_NO>999</ELEMENT_SET_NO><REV_AT_EPOCH>11563</REV_AT_EPOCH><BSTAR>-.16637E-2</BSTAR><MEAN_MOTION_DOT>-.577E-5</MEAN_MOTION_DOT><MEAN_MOTION_DDOT>0</MEAN_MOTION_DDOT></tleParameters></data></segment></body></omm>
<omm id="CCSDS_OMM_VERS" version="2.0">
<header><CREATION_DATE/><ORIGINATOR/></header><body><segment><metadata><OBJECT_NAME>ONEWEB-0412</OBJECT_NAME><OBJECT_ID>2021-132W</OBJECT_ID><CENTER_NAME>EARTH</CENTER_NAME><REF_FRAME>TEME</REF_FRAME><TIME_SYSTEM>UTC</TIME_SYSTEM><MEAN_ELEMENT_THEORY>SGP4</MEAN_ELEMENT_THEORY></metadata><data><meanElements><EPOCH>2024-05-15T11:16:02.035200</EPOCH><MEAN_MOTION>13.18686827</MEAN_MOTION><ECCENTRICITY>.000161</ECCENTRICITY><INCLINATION>87.9122</INCLINATION><RA_OF_ASC_NODE>127.2938</RA_OF_ASC_NODE><ARG_OF_PERICENTER>99.9010</ARG_OF_PERICENTER><MEAN_ANOMALY>260.2304</MEAN_ANOMALY></meanElements><tleParameters><EPHEMERIS_TYPE>0</EPHEMERIS_TYPE><CLASSIFICATION_TYPE>U</CLASSIFICATION_TYPE><NORAD_CAT_ID>50489</NORAD_CAT_ID><ELEMENT_SET_NO>999</ELEMENT_SET_NO><REV_AT_EPOCH>12113</REV_AT_EPOCH><BSTAR>.10604E-3</BSTAR><MEAN_MOTION_DOT>.55E-6</MEAN_MOTION_DOT><MEAN_MOTION_DDOT>0</MEAN_MOTION_DDOT></tleParameters></data></segment></body></omm>
<omm id="CCSDS_OMM_VERS" version="2.0">
<header><CREATION_DATE/><ORIGINATOR/></header><body><segment><metadata><OBJECT_NAME>ONEWEB-0413</OBJECT_NAME><OBJECT_ID>2021-132X</OBJECT_ID><CENTER_NAME>EARTH</CENTER_NAME><REF_FRAME>TEME</REF_FRAME><TIME_SYSTEM>UTC</TIME_SYSTEM><MEAN_ELEMENT_THEORY>SGP4</MEAN_ELEMENT_THEORY></metadata><data><meanElements><EPOCH>2024-05-15T11:22:52.060224</EPOCH><MEAN_MOTION>13.18687182</MEAN_MOTION><ECCENTRICITY>.0001902</ECCENTRICITY><INCLINATION>87.9121</INCLINATION><RA_OF_ASC_NODE>127.3060</RA_OF_ASC_NODE><ARG_OF_PERICENTER>100.6825</ARG_OF_PERICENTER><MEAN_ANOMALY>259.4522</MEAN_ANOMALY></meanElements><tleParameters><EPHEMERIS_TYPE>0</EPHEMERIS_TYPE><CLASSIFICATION_TYPE>U</CLASSIFICATION_TYPE><NORAD_CAT_ID>50490</NORAD_CAT_ID><ELEMENT_SET_NO>999</ELEMENT_SET_NO><REV_AT_EPOCH>12107</REV_AT_EPOCH><BSTAR>.14633E-3</BSTAR><MEAN_MOTION_DOT>.71E-6</MEAN_MOTION_DOT><MEAN_MOTION_DDOT>0</MEAN_MOTION_DDOT></tleParameters></data></segment></body></omm>

</ndm>
