ONEWEB-0403             
1 50483U 21132Q   24136.48211759  .00000070  00000+0  14483-3 0  9991
2 50483  87.9116 127.2897 0001787  86.8630 273.2707 13.18684900121073
ONEWEB-0404             
1 50484U 21132R   24136.59262522 -.00000563  00000+0 -16236-2 0  9994
2 50484  87.8985 172.7733 0001742  83.4141 276.7186 13.11403304115748
ONEWEB-0405             
1 50485U 21132S   24136.49792374  .00000074  00000+0  15546-3 0  9996
2 50485  87.9117 127.2761 0001666  99.1149 261.0172 13.18685897121475
ONEWEB-0406             
1 50486U 21132T   24136.48686410  .00000049  00000+0  92239-4 0  9996
2 50486  87.9120 127.2890 0002003  76.4957 283.6398 13.18686513121100
ONEWEB-0407             
1 50487U 21132U   24136.48053996  .00000058  00000+0  11360-3 0  9999
2 50487  87.9115 127.2937 0001845  90.4380 269.6963 13.18685359121048
ONEWEB-0409             
1 50488U 21132V   24136.59095219 -.00000577  00000+0 -16637-2 0  9995
2 50488  87.8976 172.7732 0002048  75.2252 284.9103 13.11409936115638
ONEWEB-0412             
1 50489U 21132W   24136.46946800  .00000055  00000+0  10604-3 0  9991
2 50489  87.9122 127.2938 0001610  99.9010 260.2304 13.18686827121130
ONEWEB-0413             
1 50490U 21132X   24136.47421366  .00000071  00000+0  14633-3 0  9993
2 50490  87.9121 127.3060 0001902 100.6825 259.4522 13.18687182121076
